[{"OBJECT_NAME":"BISONSAT","OBJECT_ID":"2015-058L","EPOCH":"2026-03-09T11:49:35.353056","MEAN_MOTION":15.13791398,"ECCENTRICITY":0.00792382,"INCLINATION":64.7598,"RA_OF_ASC_NODE":135.3937,"ARG_OF_PERICENTER":90.6713,"MEAN_ANOMALY":270.349,"EPHEMERIS_TYPE":0,"CLASSIFICATION_TYPE":"U","NORAD_CAT_ID":40974,"ELEMENT_SET_NO":999,"REV_AT_EPOCH":10051,"BSTAR":0.0006711096,"MEAN_MOTION_DOT":0.00012971,"MEAN_MOTION_DDOT":0},{"OBJECT_NAME":"STARLINK-35349","OBJECT_ID":"2025-221N","EPOCH":"2026-03-09T07:59:43.238976","MEAN_MOTION":15.30199749,"ECCENTRICITY":0.00011931,"INCLINATION":53.1591,"RA_OF_ASC_NODE":90.3675,"ARG_OF_PERICENTER":85.882,"MEAN_ANOMALY":274.2317,"EPHEMERIS_TYPE":0,"CLASSIFICATION_TYPE":"U","NORAD_CAT_ID":65835,"ELEMENT_SET_NO":999,"REV_AT_EPOCH":2467,"BSTAR":0.00076326249,"MEAN_MOTION_DOT":0.00022314,"MEAN_MOTION_DDOT":0}]
